*******************************************************************************
 Revised: June 02, 2025                 Mars                            499 / 4
 
 PHYSICAL DATA (updated 2025-Jun-02):
  Vol. mean radius (km) = 3389.92+-0.04   Density (g/cm^3)      =  3.933(5+-4)
  Mass x10^23 (kg)      =    6.4171       Flattening, f         =  1/169.779
  Volume (x10^10 km^3)  =   16.318        Equatorial radius (km)=  3396.19
  Sidereal rot. period  =   24.622962 hr  Sid. rot. rate, rad/s =  0.0000708822 
  Mean solar day (sol)  =   88775.24415 s Polar gravity m/s^2   =  3.758
  Core radius (km)      = ~1700           Equ. gravity  m/s^2   =  3.71
  Geometric Albedo      =    0.150                                              

  GM (km^3/s^2)         = 42828.375662    Mass ratio (Sun/Mars) = 3098703.59
  GM 1-sigma (km^3/s^2) = +- 0.00028      Mass of atmosphere, kg= ~ 2.5 x 10^16
  Mean temperature (K)  =  210            Atmos. pressure (bar) =    0.0056 
  Obliquity to orbit    =   25.19 deg     Max. angular diam.    =  17.9"
  Mean sidereal orb per =    1.88081578 y Visual mag. V(1,0)    =  -1.52
  Mean sidereal orb per =  686.98 d       Orbital speed,  km/s  =  24.13
  Hill's sphere rad. Rp =  319.8          Escape speed, km/s    =   5.027
                                 Perihelion  Aphelion    Mean
  Solar Constant (W/m^2)         717         493         589
  Maximum Planetary IR (W/m^2)   470         315         390
  Minimum Planetary IR (W/m^2)    30          30          30
*******************************************************************************


*******************************************************************************
Ephemeris / WWW_USER Sat Dec 27 02:25:34 2025 Pasadena, USA      / Horizons
*******************************************************************************
Target body name: Mars (499)                      {source: mar099}
Center body name: Solar System Barycenter (0)     {source: DE441}
Center-site name: BODY CENTER
*******************************************************************************
Start time      : A.D. 2015-Jan-02 00:00:00.0000 TDB
Stop  time      : A.D. 2015-Apr-29 00:00:00.0000 TDB
Step-size       : 60 minutes
*******************************************************************************
Center geodetic : 0.0, 0.0, 0.0                   {E-lon(deg),Lat(deg),Alt(km)}
Center cylindric: 0.0, 0.0, 0.0                   {E-lon(deg),Dxy(km),Dz(km)}
Center radii    : (undefined)
Output units    : KM-S
Calendar mode   : Mixed Julian/Gregorian
Output type     : GEOMETRIC cartesian states
Output format   : 3 (position, velocity, LT, range, range-rate)
Reference frame : Ecliptic of J2000.0
*******************************************************************************
            JDTDB,            Calendar Date (TDB),                      X,                      Y,                      Z,                     VX,                     VY,                     VZ,                     LT,                     RG,                     RR,
**************************************************************************************************************************************************************************************************************************************************************************
$$SOE
2457053.666666667, A.D. 2015-Jan-31 04:00:00.0000,  2.078722370754018E+08,  2.699018276923293E+07, -4.544471276696824E+06, -2.199447825817463E+00,  2.610643067982436E+01,  6.007967414219042E-01,  6.993717492982604E+02,  2.096663757778853E+08,  1.167010643338205E+00,
2457053.708333333, A.D. 2015-Jan-31 05:00:00.0000,  2.078642995904543E+08,  2.708416337380585E+07, -4.542307983850801E+06, -2.210265858251480E+00,  2.610501550392149E+01,  6.010325979666327E-01,  6.993857682546778E+02,  2.096705785552882E+08,  1.167865643185309E+00,
2457053.750000000, A.D. 2015-Jan-31 06:00:00.0000,  2.078563231624883E+08,  2.717813887508237E+07, -4.540143842132663E+06, -2.221082835201112E+00,  2.610359551267226E+01,  6.012683366097669E-01,  6.993997974764441E+02,  2.096747844101653E+08,  1.168720351241038E+00,
2457053.791666667, A.D. 2015-Jan-31 07:00:00.0000,  2.078483077953180E+08,  2.727210925570210E+07, -4.537978851973921E+06, -2.231898747354719E+00,  2.610217069301300E+01,  6.015039528174331E-01,  6.994138369600754E+02,  2.096789933414722E+08,  1.169574772452413E+00,
2457053.833333333, A.D. 2015-Jan-31 08:00:00.0000,  2.078402534928046E+08,  2.736607449827143E+07, -4.535813013828048E+06, -2.242713578329581E+00,  2.610074104027171E+01,  6.017394392804434E-01,  6.994278867022005E+02,  2.096832053481982E+08,  1.170428919899561E+00,
2457053.875000000, A.D. 2015-Jan-31 09:00:00.0000,  2.078321602588725E+08,  2.746003458540324E+07, -4.533646328174932E+06, -2.253527310937631E+00,  2.609930656384954E+01,  6.019747894303951E-01,  6.994419466996274E+02,  2.096874204293863E+08,  1.171282809274523E+00,
2457053.916666667, A.D. 2015-Jan-31 10:00:00.0000,  2.078240280974931E+08,  2.755398949976600E+07, -4.531478795509091E+06, -2.264339938007530E+00,  2.609786728304098E+01,  6.022100023844352E-01,  6.994560169493130E+02,  2.096916385841242E+08,  1.172136447536946E+00,
2457053.958333333, A.D. 2015-Jan-31 11:00:00.0000,  2.078158570126369E+08,  2.764793922409632E+07, -4.529310416315278E+06, -2.275151467000968E+00,  2.609642321440501E+01,  6.024450841799727E-01,  6.994700974482087E+02,  2.096958598114980E+08,  1.172989826675063E+00,
2457054.000000000, A.D. 2015-Jan-31 12:00:00.0000,  2.078076470082302E+08,  2.774188374116801E+07, -4.527141191049904E+06, -2.285961912789066E+00,  2.609497436018870E+01,  6.026800433162514E-01,  6.994841881931011E+02,  2.097000841105444E+08,  1.173842929424405E+00,
2457054.041666667, A.D. 2015-Jan-31 13:00:00.0000,  2.077993980881532E+08,  2.783582303373292E+07, -4.524971120144835E+06, -2.296771284408665E+00,  2.609352070817290E+01,  6.029148842791301E-01,  6.994982891805826E+02,  2.097043114802416E+08,  1.174695742473625E+00,
2457054.083333333, A.D. 2015-Jan-31 14:00:00.0000,  2.077911102562733E+08,  2.792975708449087E+07, -4.522800204026045E+06, -2.307579579858860E+00,  2.609206224287825E+01,  6.031496059051467E-01,  6.995124004071470E+02,  2.097085419195388E+08,  1.175548263109704E+00,
2457054.125000000, A.D. 2015-Jan-31 15:00:00.0000,  2.077827835164842E+08,  2.802368587609201E+07, -4.520628443132468E+06, -2.318386786813969E+00,  2.609059895328646E+01,  6.033842023517284E-01,  6.995265218693215E+02,  2.097127754273946E+08,  1.176400499511177E+00,
2457054.166666667, A.D. 2015-Jan-31 16:00:00.0000,  2.077744178727358E+08,  2.811760939116504E+07, -4.518455837928511E+06, -2.329192887567618E+00,  2.608913083959428E+01,  6.036186660538956E-01,  6.995406535637806E+02,  2.097170120028122E+08,  1.177252466701207E+00,
2457054.208333333, A.D. 2015-Jan-31 17:00:00.0000,  2.077660133290392E+08,  2.821152761236413E+07, -4.516282388902428E+06, -2.339997867478908E+00,  2.608765791536750E+01,  6.038529920190054E-01,  6.995547954873792E+02,  2.097212516448487E+08,  1.178104178406381E+00,
2457054.250000000, A.D. 2015-Jan-31 18:00:00.0000,  2.077575698894387E+08,  2.830544052240770E+07, -4.514108096549819E+06, -2.350801724187624E+00,  2.608618020089996E+01,  6.040871817880671E-01,  6.995689476370815E+02,  2.097254943525939E+08,  1.178955636982482E+00,
2457054.291666667, A.D. 2015-Jan-31 19:00:00.0000,  2.077490875579590E+08,  2.839934810407795E+07, -4.511932961347707E+06, -2.361604469450569E+00,  2.608469770867368E+01,  6.043212431603422E-01,  6.995831100097799E+02,  2.097297401251163E+08,  1.179806829652503E+00,
2457054.333333333, A.D. 2015-Jan-31 20:00:00.0000,  2.077405663385751E+08,  2.849325034017280E+07, -4.509756983743771E+06, -2.372406117299357E+00,  2.608321043495694E+01,  6.045551837386007E-01,  6.995972826021772E+02,  2.097339889614273E+08,  1.180657739215480E+00,
2457054.375000000, A.D. 2015-Jan-31 21:00:00.0000,  2.077320062352244E+08,  2.858714721345468E+07, -4.507580164166427E+06, -2.383206673199362E+00,  2.608171836542758E+01,  6.047890060926431E-01,  6.996114654108025E+02,  2.097382408604864E+08,  1.181508355612327E+00,
2457054.416666667, A.D. 2015-Jan-31 22:00:00.0000,  2.077234072518451E+08,  2.868103870663073E+07, -4.505402503045241E+06, -2.394006131251275E+00,  2.608022148520176E+01,  6.050227072013250E-01,  6.996256584321310E+02,  2.097424958212370E+08,  1.182358680051129E+00,
2457054.458333333, A.D. 2015-Jan-31 23:00:00.0000,  2.077147693924144E+08,  2.877492480236567E+07, -4.503224000828180E+06, -2.404804476656968E+00,  2.607871978667703E+01,  6.052562802871826E-01,  6.996398616627157E+02,  2.097467538426455E+08,  1.183208723597654E+00,
2457054.500000000, A.D. 2015-Feb-01 00:00:00.0000,  2.077060926609699E+08,  2.886880548331797E+07, -4.501044657989650E+06, -2.415601691634044E+00,  2.607721327462344E+01,  6.054897181122190E-01,  6.996540750992767E+02,  2.097510149237288E+08,  1.184058501965760E+00,
2457054.541666667, A.D. 2015-Feb-01 01:00:00.0000,  2.076973770616053E+08,  2.896268073218744E+07, -4.498864475024072E+06, -2.426397764893429E+00,  2.607570196623871E+01,  6.057230176067900E-01,  6.996682987387067E+02,  2.097552790635552E+08,  1.184908026073635E+00,
2457054.583333333, A.D. 2015-Feb-01 02:00:00.0000,  2.076886225984294E+08,  2.905655053174358E+07, -4.496683452423992E+06, -2.437192699711638E+00,  2.607418588104647E+01,  6.059561829947899E-01,  6.996825325779480E+02,  2.097595462612081E+08,  1.185757292618988E+00,
2457054.625000000, A.D. 2015-Feb-01 03:00:00.0000,  2.076798292755165E+08,  2.915041486480745E+07, -4.494501590657194E+06, -2.447986510138393E+00,  2.607266502574137E+01,  6.061892227230246E-01,  6.996967766138198E+02,  2.097638165157340E+08,  1.186606285802251E+00,
2457054.666666667, A.D. 2015-Feb-01 04:00:00.0000,  2.076709970968908E+08,  2.924427371419504E+07, -4.492318890163482E+06, -2.458779208124041E+00,  2.607113939195526E+01,  6.064221430005556E-01,  6.997110308429392E+02,  2.097680898261185E+08,  1.187454989865763E+00,
